[{"OBJECT_NAME":"NUSAT-33 (ALBANIA-2)","OBJECT_ID":"2023-001AQ","EPOCH":"2026-03-09T22:33:27.663264","MEAN_MOTION":15.26923259,"ECCENTRICITY":0.00076854,"INCLINATION":97.3178,"RA_OF_ASC_NODE":131.8399,"ARG_OF_PERICENTER":52.546,"MEAN_ANOMALY":307.6477,"EPHEMERIS_TYPE":0,"CLASSIFICATION_TYPE":"U","NORAD_CAT_ID":55047,"ELEMENT_SET_NO":999,"REV_AT_EPOCH":17716,"BSTAR":0.0004947656,"MEAN_MOTION_DOT":0.00013029,"MEAN_MOTION_DDOT":0},{"OBJECT_NAME":"STARLINK-35991","OBJECT_ID":"2025-281P","EPOCH":"2026-03-09T03:10:15.234528","MEAN_MOTION":15.27583694,"ECCENTRICITY":0.00010811,"INCLINATION":43.001,"RA_OF_ASC_NODE":346.3275,"ARG_OF_PERICENTER":261.1147,"MEAN_ANOMALY":98.9583,"EPHEMERIS_TYPE":0,"CLASSIFICATION_TYPE":"U","NORAD_CAT_ID":66861,"ELEMENT_SET_NO":999,"REV_AT_EPOCH":1610,"BSTAR":0.0012484966,"MEAN_MOTION_DOT":0.00034257,"MEAN_MOTION_DDOT":0}]
